{"type": "FeatureCollection", "features": [ {"type": "Feature", "properties": {"norad_id": 66687, "name": "TRANSPORTER-15 X", "group": "last-30-days", "lat": -6.127863974291758, "lon": -112.83119796185825, "alt_km": 523.3300956278226, "timestamp": "2025-12-22T09:53:36.143552+00:00", "meta": {"OBJECT_NAME": "TRANSPORTER-15 X", "OBJECT_ID": "2025-276X", "EPOCH": "2025-12-22T04:19:33.754656", "MEAN_MOTION": 15.16685821, "ECCENTRICITY": 0.0008265, "INCLINATION": 97.4389, "RA_OF_ASC_NODE": 67.745, "ARG_OF_PERICENTER": 57.1309, "MEAN_ANOMALY": 303.0719, "EPHEMERIS_TYPE": 0, "CLASSIFICATION_TYPE": "U", "NORAD_CAT_ID": 66687, "ELEMENT_SET_NO": 999, "REV_AT_EPOCH": 355, "BSTAR": 0.00083107, "MEAN_MOTION_DOT": 0.00016246, "MEAN_MOTION_DDOT": 0}, "tle": {"line1": "1 66687U 25276X   25356.18025179  .00016246  00000+0  83107-3 0  9999", "line2": "2 66687  97.4389  67.7450 0008265  57.1309 303.0719 15.16685821  3559"}}, "geometry": {"type": "Point", "coordinates": [-112.83119796185825, -6.127863974291758]}}, {"type": "Feature", "properties": {"norad_id": 66688, "name": "TRANSPORTER-15 Y", "group": "last-30-days", "lat": -39.28391134046041, "lon": -118.1372137114539, "alt_km": 519.0672822305287, "timestamp": "2025-12-22T09:53:36.143562+00:00", "meta": {"OBJECT_NAME": "TRANSPORTER-15 Y", "OBJECT_ID": "2025-276Y", "EPOCH": "2025-12-22T04:10:44.673024", "MEAN_MOTION": 15.17068631, "ECCENTRICITY": 0.000368, "INCLINATION": 97.4434, "RA_OF_ASC_NODE": 67.7683, "ARG_OF_PERICENTER": 251.6213, "MEAN_ANOMALY": 108.462, "EPHEMERIS_TYPE": 0, "CLASSIFICATION_TYPE": "U", "NORAD_CAT_ID": 66688, "ELEMENT_SET_NO": 999, "REV_AT_EPOCH": 355, "BSTAR": 0.00044374, "MEAN_MOTION_DOT": 8.724e-05, "MEAN_MOTION_DDOT": 0}, "tle": {"line1": "1 66688U 25276Y   25356.17412816  .00008724  00000+0  44374-3 0  9992", "line2": "2 66688  97.4434  67.7683 0003680 251.6213 108.4620 15.17068631  3553"}}, "geometry": {"type": "Point", "coordinates": [-118.1372137114539, -39.28391134046041]}}, {"type": "Feature", "properties": {"norad_id": 66689, "name": "TRANSPORTER-15 Z", "group": "last-30-days", "lat": -58.09264614851761, "lon": -124.11320860389986, "alt_km": 517.3621208542063, "timestamp": "2025-12-22T09:53:36.143572+00:00", "meta": {"OBJECT_NAME": "TRANSPORTER-15 Z", "OBJECT_ID": "2025-276Z", "EPOCH": "2025-12-22T04:05:50.469792", "MEAN_MOTION": 15.17706915, "ECCENTRICITY": 0.0003011, "INCLINATION": 97.4427, "RA_OF_ASC_NODE": 67.7694, "ARG_OF_PERICENTER": 240.2992, "MEAN_ANOMALY": 119.7943, "EPHEMERIS_TYPE": 0, "CLASSIFICATION_TYPE": "U", "NORAD_CAT_ID": 66689, "ELEMENT_SET_NO": 999, "REV_AT_EPOCH": 355, "BSTAR": 0.015078, "MEAN_MOTION_DOT": 0.00317267, "MEAN_MOTION_DDOT": 0}, "tle": {"line1": "1 66689U 25276Z   25356.17072303  .00317267  00000+0  15078-1 0  9998", "line2": "2 66689  97.4427  67.7694 0003011 240.2992 119.7943 15.17706915  3551"}}, "geometry": {"type": "Point", "coordinates": [-124.11320860389986, -58.09264614851761]}}, {"type": "Feature", "properties": {"norad_id": 66690, "name": "TRANSPORTER-15 AA", "group": "last-30-days", "lat": -38.98619667507549, "lon": -118.08033866588609, "alt_km": 519.2054409268885, "timestamp": "2025-12-22T09:53:36.143584+00:00", "meta": {"OBJECT_NAME": "TRANSPORTER-15 AA", "OBJECT_ID": "2025-276AA", "EPOCH": "2025-12-22T04:10:49.251360", "MEAN_MOTION": 15.17051785, "ECCENTRICITY": 0.0003565, "INCLINATION": 97.4398, "RA_OF_ASC_NODE": 67.7573, "ARG_OF_PERICENTER": 252.8448, "MEAN_ANOMALY": 107.2395, "EPHEMERIS_TYPE": 0, "CLASSIFICATION_TYPE": "U", "NORAD_CAT_ID": 66690, "ELEMENT_SET_NO": 999, "REV_AT_EPOCH": 355, "BSTAR": 0.00049331, "MEAN_MOTION_DOT": 9.702e-05, "MEAN_MOTION_DDOT": 0}, "tle": {"line1": "1 66690U 25276AA  25356.17418115  .00009702  00000+0  49331-3 0  9998", "line2": "2 66690  97.4398  67.7573 0003565 252.8448 107.2395 15.17051785  3556"}}, "geometry": {"type": "Point", "coordinates": [-118.08033866588609, -38.98619667507549]}}, {"type": "Feature", "properties": {"norad_id": 66691, "name": "TRANSPORTER-15 AB", "group": "last-30-days", "lat": -49.35016424571535, "lon": -120.75483785624093, "alt_km": 518.6066226975299, "timestamp": "2025-12-22T09:53:36.143595+00:00", "meta": {"OBJECT_NAME": "TRANSPORTER-15 AB", "OBJECT_ID": "2025-276AB", "EPOCH": "2025-12-22T02:33:07.299936", "MEAN_MOTION": 15.17278277, "ECCENTRICITY": 0.0003728, "INCLINATION": 97.4423, "RA_OF_ASC_NODE": 67.7017, "ARG_OF_PERICENTER": 253.686, "MEAN_ANOMALY": 106.3964, "EPHEMERIS_TYPE": 0, "CLASSIFICATION_TYPE": "U", "NORAD_CAT_ID": 66691, "ELEMENT_SET_NO": 999, "REV_AT_EPOCH": 354, "BSTAR": 0.00057545, "MEAN_MOTION_DOT": 0.00011405, "MEAN_MOTION_DDOT": 0}, "tle": {"line1": "1 66691U 25276AB  25356.10633449  .00011405  00000+0  57545-3 0  9990", "line2": "2 66691  97.4423  67.7017 0003728 253.6860 106.3964 15.17278277  3545"}}, "geometry": {"type": "Point", "coordinates": [-120.75483785624093, -49.35016424571535]}}, {"type": "Feature", "properties": {"norad_id": 66692, "name": "TRANSPORTER-15 AC", "group": "last-30-days", "lat": -64.71978645123569, "lon": -128.05591477043384, "alt_km": 521.5135003359055, "timestamp": "2025-12-22T09:53:36.143604+00:00", "meta": {"OBJECT_NAME": "TRANSPORTER-15 AC", "OBJECT_ID": "2025-276AC", "EPOCH": "2025-12-21T18:33:56.289888", "MEAN_MOTION": 15.17114883, "ECCENTRICITY": 0.0001987, "INCLINATION": 97.4425, "RA_OF_ASC_NODE": 67.3859, "ARG_OF_PERICENTER": 209.7052, "MEAN_ANOMALY": 150.4069, "EPHEMERIS_TYPE": 0, "CLASSIFICATION_TYPE": "U", "NORAD_CAT_ID": 66692, "ELEMENT_SET_NO": 999, "REV_AT_EPOCH": 349, "BSTAR": -0.0096276, "MEAN_MOTION_DOT": -0.00186003, "MEAN_MOTION_DDOT": 0}, "tle": {"line1": "1 66692U 25276AC  25355.77356817 -.00186003  00000+0 -96276-2 0  9996", "line2": "2 66692  97.4425  67.3859 0001987 209.7052 150.4069 15.17114883  3490"}}, "geometry": {"type": "Point", "coordinates": [-128.05591477043384, -64.71978645123569]}}, {"type": "Feature", "properties": {"norad_id": 66693, "name": "TRANSPORTER-15 AD", "group": "last-30-days", "lat": -64.94408475650373, "lon": -128.23277599338658, "alt_km": 518.4199808356489, "timestamp": "2025-12-22T09:53:36.143616+00:00", "meta": {"OBJECT_NAME": "TRANSPORTER-15 AD", "OBJECT_ID": "2025-276AD", "EPOCH": "2025-12-22T04:03:54.480384", "MEAN_MOTION": 15.17584372, "ECCENTRICITY": 0.0003305, "INCLINATION": 97.4376, "RA_OF_ASC_NODE": 67.7553, "ARG_OF_PERICENTER": 278.1883, "MEAN_ANOMALY": 81.8976, "EPHEMERIS_TYPE": 0, "CLASSIFICATION_TYPE": "U", "NORAD_CAT_ID": 66693, "ELEMENT_SET_NO": 999, "REV_AT_EPOCH": 355, "BSTAR": 0.00087106, "MEAN_MOTION_DOT": 0.00017464, "MEAN_MOTION_DDOT": 0}, "tle": {"line1": "1 66693U 25276AD  25356.16938056  .00017464  00000+0  87106-3 0  9997", "line2": "2 66693  97.4376  67.7553 0003305 278.1883  81.8976 15.17584372  3554"}}, "geometry": {"type": "Point", "coordinates": [-128.23277599338658, -64.94408475650373]}}, {"type": "Feature", "properties": {"norad_id": 66694, "name": "YAM-9", "group": "last-30-days", "lat": -77.10452246727833, "lon": -146.8074289448663, "alt_km": 514.7641631238612, "timestamp": "2025-12-22T09:53:36.143626+00:00", "meta": {"OBJECT_NAME": "YAM-9", "OBJECT_ID": "2025-276AE", "EPOCH": "2025-12-22T04:00:52.312032", "MEAN_MOTION": 15.19342244, "ECCENTRICITY": 0.0005476, "INCLINATION": 97.4431, "RA_OF_ASC_NODE": 67.7724, "ARG_OF_PERICENTER": 147.0112, "MEAN_ANOMALY": 213.1465, "EPHEMERIS_TYPE": 0, "CLASSIFICATION_TYPE": "U", "NORAD_CAT_ID": 66694, "ELEMENT_SET_NO": 999, "REV_AT_EPOCH": 355, "BSTAR": 0.057141, "MEAN_MOTION_DOT": 0.01306676, "MEAN_MOTION_DDOT": 0}, "tle": {"line1": "1 66694U 25276AE  25356.16727213  .01306676  00000+0  57141-1 0  9990", "line2": "2 66694  97.4431  67.7724 0005476 147.0112 213.1465 15.19342244  3552"}}, "geometry": {"type": "Point", "coordinates": [-146.8074289448663, -77.10452246727833]}}, {"type": "Feature", "properties": {"norad_id": 66695, "name": "IRIDE FM1", "group": "last-30-days", "lat": -47.2890431454482, "lon": 76.1703018163265, "alt_km": 518.8495950720489, "timestamp": "2025-12-22T09:53:36.143638+00:00", "meta": {"OBJECT_NAME": "IRIDE FM1", "OBJECT_ID": "2025-276AF", "EPOCH": "2025-12-22T02:11:41.204832", "MEAN_MOTION": 15.18240266, "ECCENTRICITY": 0.00013, "INCLINATION": 97.4406, "RA_OF_ASC_NODE": 67.716, "ARG_OF_PERICENTER": 151.21, "MEAN_ANOMALY": 208.9206, "EPHEMERIS_TYPE": 0, "CLASSIFICATION_TYPE": "U", "NORAD_CAT_ID": 66695, "ELEMENT_SET_NO": 999, "REV_AT_EPOCH": 354, "BSTAR": 0.00064659, "MEAN_MOTION_DOT": 0.00013184, "MEAN_MOTION_DDOT": 0}, "tle": {"line1": "1 66695U 25276AF  25356.09144913  .00013184  00000+0  64659-3 0  9995", "line2": "2 66695  97.4406  67.7160 0001300 151.2100 208.9206 15.18240266  3549"}}, "geometry": {"type": "Point", "coordinates": [76.1703018163265, -47.2890431454482]}}, {"type": "Feature", "properties": {"norad_id": 66696, "name": "IRIDE FM2", "group": "last-30-days", "lat": -61.81110764251296, "lon": -126.11317851139344, "alt_km": 519.2931733102496, "timestamp": "2025-12-22T09:53:36.143648+00:00", "meta": {"OBJECT_NAME": "IRIDE FM2", "OBJECT_ID": "2025-276AG", "EPOCH": "2025-12-22T02:29:46.497696", "MEAN_MOTION": 15.17401367, "ECCENTRICITY": 0.0002621, "INCLINATION": 97.4393, "RA_OF_ASC_NODE": 67.6953, "ARG_OF_PERICENTER": 272.5389, "MEAN_ANOMALY": 87.5545, "EPHEMERIS_TYPE": 0, "CLASSIFICATION_TYPE": "U", "NORAD_CAT_ID": 66696, "ELEMENT_SET_NO": 999, "REV_AT_EPOCH": 354, "BSTAR": 0.00065533, "MEAN_MOTION_DOT": 0.00013046, "MEAN_MOTION_DDOT": 0}, "tle": {"line1": "1 66696U 25276AG  25356.10401039  .00013046  00000+0  65533-3 0  9992", "line2": "2 66696  97.4393  67.6953 0002621 272.5389  87.5545 15.17401367  3544"}}, "geometry": {"type": "Point", "coordinates": [-126.11317851139344, -61.81110764251296]}}]}